{
  "type": "FeatureCollection",
  "features": [
    {
      "type": "Feature",
      "properties": {
        "norad_id": 31322,
        "name": "FENGYUN 1C DEB",
        "group": "fengyun-1c-debris",
        "lat": 19.661536874881648,
        "lon": 38.952090605147376,
        "alt_km": 818.8558757890642,
        "timestamp": "2025-12-03T06:58:43.519695+00:00",
        "meta_object_name": "FENGYUN 1C DEB",
        "meta_object_id": "1999-025BQA",
        "meta_epoch": "2025-12-02T09:57:05.346144",
        "meta_mean_motion": 13.72990391,
        "meta_eccentricity": 0.0239007,
        "meta_inclination": 98.5749,
        "meta_ra_of_asc_node": 41.2566,
        "meta_arg_of_pericenter": 37.8458,
        "meta_mean_anomaly": 334.6813,
        "meta_ephemeris_type": 0,
        "meta_classification_type": "U",
        "meta_norad_cat_id": 31322,
        "meta_element_set_no": 999,
        "meta_rev_at_epoch": 62134,
        "meta_bstar": 0.00025402374,
        "meta_mean_motion_dot": 2.51e-06,
        "meta_mean_motion_ddot": 0,
        "tle_line1": "1 31322U 99025BQA 25336.41464521  .00000251  00000+0  25402-3 0  9995",
        "tle_line2": "2 31322  98.5749  41.2566 0239007  37.8458 334.6813 13.72990391621343"
      },
      "geometry": {
        "type": "Point",
        "coordinates": [
          38.952090605147376,
          19.661536874881648
        ]
      }
    },
    {
      "type": "Feature",
      "properties": {
        "norad_id": 31323,
        "name": "FENGYUN 1C DEB",
        "group": "fengyun-1c-debris",
        "lat": -62.70641011822438,
        "lon": 176.26072046104645,
        "alt_km": 824.2153593708117,
        "timestamp": "2025-12-03T06:58:43.519705+00:00",
        "meta_object_name": "FENGYUN 1C DEB",
        "meta_object_id": "1999-025BQB",
        "meta_epoch": "2025-12-02T07:58:19.286688",
        "meta_mean_motion": 14.274728,
        "meta_eccentricity": 0.00318958,
        "meta_inclination": 99.422,
        "meta_ra_of_asc_node": 14.0004,
        "meta_arg_of_pericenter": 109.182,
        "meta_mean_anomaly": 251.2815,
        "meta_ephemeris_type": 0,
        "meta_classification_type": "U",
        "meta_norad_cat_id": 31323,
        "meta_element_set_no": 999,
        "meta_rev_at_epoch": 63832,
        "meta_bstar": 0.0018110627,
        "meta_mean_motion_dot": 4.423e-05,
        "meta_mean_motion_ddot": 0,
        "tle_line1": "1 31323U 99025BQB 25336.33216767  .00004423  00000+0  18111-2 0  9997",
        "tle_line2": "2 31323  99.4220  14.0004 0031895 109.1820 251.2815 14.27472800638327"
      },
      "geometry": {
        "type": "Point",
        "coordinates": [
          176.26072046104645,
          -62.70641011822438
        ]
      }
    },
    {
      "type": "Feature",
      "properties": {
        "norad_id": 31324,
        "name": "FENGYUN 1C DEB",
        "group": "fengyun-1c-debris",
        "lat": 68.57225964625086,
        "lon": -125.6065449246507,
        "alt_km": 842.3528539799036,
        "timestamp": "2025-12-03T06:58:43.519715+00:00",
        "meta_object_name": "FENGYUN 1C DEB",
        "meta_object_id": "1999-025BQC",
        "meta_epoch": "2025-12-01T12:12:44.247744",
        "meta_mean_motion": 14.14680998,
        "meta_eccentricity": 0.0049762,
        "meta_inclination": 99.122,
        "meta_ra_of_asc_node": 256.7405,
        "meta_arg_of_pericenter": 336.2321,
        "meta_mean_anomaly": 23.6554,
        "meta_ephemeris_type": 0,
        "meta_classification_type": "U",
        "meta_norad_cat_id": 31324,
        "meta_element_set_no": 999,
        "meta_rev_at_epoch": 96327,
        "meta_bstar": 0.00020764427,
        "meta_mean_motion_dot": 3.57e-06,
        "meta_mean_motion_ddot": 0,
        "tle_line1": "1 31324U 99025BQC 25335.50884546  .00000357  00000+0  20764-3 0  9992",
        "tle_line2": "2 31324  99.1220 256.7405 0049762 336.2321  23.6554 14.14680998963277"
      },
      "geometry": {
        "type": "Point",
        "coordinates": [
          -125.6065449246507,
          68.57225964625086
        ]
      }
    },
    {
      "type": "Feature",
      "properties": {
        "norad_id": 31325,
        "name": "FENGYUN 1C DEB",
        "group": "fengyun-1c-debris",
        "lat": -80.96232385989009,
        "lon": 166.80569222782546,
        "alt_km": 796.4292694975502,
        "timestamp": "2025-12-03T06:58:43.519725+00:00",
        "meta_object_name": "FENGYUN 1C DEB",
        "meta_object_id": "1999-025BQD",
        "meta_epoch": "2025-11-24T23:23:39.646752",
        "meta_mean_motion": 14.16672096,
        "meta_eccentricity": 0.00707168,
        "meta_inclination": 98.9917,
        "meta_ra_of_asc_node": 62.9425,
        "meta_arg_of_pericenter": 270.4358,
        "meta_mean_anomaly": 88.8713,
        "meta_ephemeris_type": 0,
        "meta_classification_type": "U",
        "meta_norad_cat_id": 31325,
        "meta_element_set_no": 999,
        "meta_rev_at_epoch": 59526,
        "meta_bstar": 0.0025582335,
        "meta_mean_motion_dot": 5.193e-05,
        "meta_mean_motion_ddot": 0,
        "tle_line1": "1 31325U 99025BQD 25328.97476443  .00005193  00000+0  25582-2 0  9994",
        "tle_line2": "2 31325  98.9917  62.9425 0070716 270.4358  88.8713 14.16672096595261"
      },
      "geometry": {
        "type": "Point",
        "coordinates": [
          166.80569222782546,
          -80.96232385989009
        ]
      }
    },
    {
      "type": "Feature",
      "properties": {
        "norad_id": 31327,
        "name": "FENGYUN 1C DEB",
        "group": "fengyun-1c-debris",
        "lat": 79.67721115423012,
        "lon": -83.25859797229188,
        "alt_km": 484.2827966657924,
        "timestamp": "2025-12-03T06:58:43.519734+00:00",
        "meta_object_name": "FENGYUN 1C DEB",
        "meta_object_id": "1999-025BQF",
        "meta_epoch": "2025-12-02T05:09:54.181152",
        "meta_mean_motion": 15.09995749,
        "meta_eccentricity": 0.0089281,
        "meta_inclination": 98.9847,
        "meta_ra_of_asc_node": 335.7853,
        "meta_arg_of_pericenter": 44.0162,
        "meta_mean_anomaly": 316.8127,
        "meta_ephemeris_type": 0,
        "meta_classification_type": "U",
        "meta_norad_cat_id": 31327,
        "meta_element_set_no": 999,
        "meta_rev_at_epoch": 99941,
        "meta_bstar": 0.0018104,
        "meta_mean_motion_dot": 0.00032362,
        "meta_mean_motion_ddot": 0,
        "tle_line1": "1 31327U 99025BQF 25336.21521043  .00032362  00000+0  18104-2 0  9999",
        "tle_line2": "2 31327  98.9847 335.7853 0089281  44.0162 316.8127 15.09995749999410"
      },
      "geometry": {
        "type": "Point",
        "coordinates": [
          -83.25859797229188,
          79.67721115423012
        ]
      }
    },
    {
      "type": "Feature",
      "properties": {
        "norad_id": 31328,
        "name": "FENGYUN 1C DEB",
        "group": "fengyun-1c-debris",
        "lat": 39.21369214826949,
        "lon": 138.30641353719497,
        "alt_km": 809.9480563353009,
        "timestamp": "2025-12-03T06:58:43.519745+00:00",
        "meta_object_name": "FENGYUN 1C DEB",
        "meta_object_id": "1999-025BQG",
        "meta_epoch": "2025-12-01T08:56:23.978400",
        "meta_mean_motion": 14.28936236,
        "meta_eccentricity": 0.01032236,
        "meta_inclination": 98.482,
        "meta_ra_of_asc_node": 309.4463,
        "meta_arg_of_pericenter": 250.2116,
        "meta_mean_anomaly": 108.7913,
        "meta_ephemeris_type": 0,
        "meta_classification_type": "U",
        "meta_norad_cat_id": 31328,
        "meta_element_set_no": 999,
        "meta_rev_at_epoch": 97300,
        "meta_bstar": 0.00010963271,
        "meta_mean_motion_dot": 2.5e-06,
        "meta_mean_motion_ddot": 0,
        "tle_line1": "1 31328U 99025BQG 25335.37249975  .00000250  00000+0  10963-3 0  9994",
        "tle_line2": "2 31328  98.4820 309.4463 0103223 250.2116 108.7913 14.28936236973009"
      },
      "geometry": {
        "type": "Point",
        "coordinates": [
          138.30641353719497,
          39.21369214826949
        ]
      }
    },
    {
      "type": "Feature",
      "properties": {
        "norad_id": 31330,
        "name": "FENGYUN 1C DEB",
        "group": "fengyun-1c-debris",
        "lat": 77.06641114907418,
        "lon": 97.31611976243755,
        "alt_km": 547.040684324611,
        "timestamp": "2025-12-03T06:58:43.519755+00:00",
        "meta_object_name": "FENGYUN 1C DEB",
        "meta_object_id": "1999-025BQJ",
        "meta_epoch": "2025-12-02T16:50:39.866784",
        "meta_mean_motion": 15.06052464,
        "meta_eccentricity": 0.0010738,
        "meta_inclination": 98.8856,
        "meta_ra_of_asc_node": 139.5789,
        "meta_arg_of_pericenter": 236.3303,
        "meta_mean_anomaly": 252.9699,
        "meta_ephemeris_type": 0,
        "meta_classification_type": "U",
        "meta_norad_cat_id": 31330,
        "meta_element_set_no": 999,
        "meta_rev_at_epoch": 96978,
        "meta_bstar": 0.011876,
        "meta_mean_motion_dot": 0.00177764,
        "meta_mean_motion_ddot": 0,
        "tle_line1": "1 31330U 99025BQJ 25336.70185031  .00177764  00000+0  11876-1 0  9994",
        "tle_line2": "2 31330  98.8856 139.5789 0010738 236.3303 252.9699 15.06052464969781"
      },
      "geometry": {
        "type": "Point",
        "coordinates": [
          97.31611976243755,
          77.06641114907418
        ]
      }
    }
  ]
}